{
  "type": "FeatureCollection",
  "features": [
    {
      "type": "Feature",
      "properties": {
        "norad_id": 34815,
        "name": "COSMOS 2251 DEB",
        "group": "cosmos-2251-debris",
        "lat": 36.96183084753075,
        "lon": 40.59717586368693,
        "alt_km": 670.2572175727946,
        "timestamp": "2025-12-17T04:57:44.755916+00:00",
        "meta_object_name": "COSMOS 2251 DEB",
        "meta_object_id": "1993-036ABE",
        "meta_epoch": "2025-12-16T23:27:00.109440",
        "meta_mean_motion": 14.78364553,
        "meta_eccentricity": 0.00588472,
        "meta_inclination": 74.0451,
        "meta_ra_of_asc_node": 233.4801,
        "meta_arg_of_pericenter": 301.655,
        "meta_mean_anomaly": 57.8893,
        "meta_ephemeris_type": 0,
        "meta_classification_type": "U",
        "meta_norad_cat_id": 34815,
        "meta_element_set_no": 999,
        "meta_rev_at_epoch": 88690,
        "meta_bstar": 0.00060673515,
        "meta_mean_motion_dot": 4.512e-05,
        "meta_mean_motion_ddot": 0,
        "tle_line1": "1 34815U 93036ABE 25350.97708460  .00004512  00000+0  60674-3 0  9995",
        "tle_line2": "2 34815  74.0451 233.4801 0058847 301.6550  57.8893 14.78364553886904"
      },
      "geometry": {
        "type": "Point",
        "coordinates": [
          40.59717586368693,
          36.96183084753075
        ]
      }
    },
    {
      "type": "Feature",
      "properties": {
        "norad_id": 34816,
        "name": "COSMOS 2251 DEB",
        "group": "cosmos-2251-debris",
        "lat": -30.495981558304337,
        "lon": 126.02992671374638,
        "alt_km": 1214.0154351937526,
        "timestamp": "2025-12-17T04:57:44.755938+00:00",
        "meta_object_name": "COSMOS 2251 DEB",
        "meta_object_id": "1993-036ABF",
        "meta_epoch": "2025-12-15T18:06:42.079680",
        "meta_mean_motion": 13.58332319,
        "meta_eccentricity": 0.03733711,
        "meta_inclination": 73.8856,
        "meta_ra_of_asc_node": 138.2013,
        "meta_arg_of_pericenter": 202.1531,
        "meta_mean_anomaly": 224.4448,
        "meta_ephemeris_type": 0,
        "meta_classification_type": "U",
        "meta_norad_cat_id": 34816,
        "meta_element_set_no": 999,
        "meta_rev_at_epoch": 82824,
        "meta_bstar": 0.0011149526,
        "meta_mean_motion_dot": 1.255e-05,
        "meta_mean_motion_ddot": 0,
        "tle_line1": "1 34816U 93036ABF 25349.75465370  .00001255  00000+0  11150-2 0  9995",
        "tle_line2": "2 34816  73.8856 138.2013 0373371 202.1531 224.4448 13.58332319828247"
      },
      "geometry": {
        "type": "Point",
        "coordinates": [
          126.02992671374638,
          -30.495981558304337
        ]
      }
    },
    {
      "type": "Feature",
      "properties": {
        "norad_id": 34818,
        "name": "COSMOS 2251 DEB",
        "group": "cosmos-2251-debris",
        "lat": 62.070517841162356,
        "lon": 76.04572912119976,
        "alt_km": 767.9896844979367,
        "timestamp": "2025-12-17T04:57:44.755948+00:00",
        "meta_object_name": "COSMOS 2251 DEB",
        "meta_object_id": "1993-036ABH",
        "meta_epoch": "2025-12-16T07:26:50.142048",
        "meta_mean_motion": 14.3697169,
        "meta_eccentricity": 0.00243056,
        "meta_inclination": 74.0362,
        "meta_ra_of_asc_node": 290.3739,
        "meta_arg_of_pericenter": 5.1622,
        "meta_mean_anomaly": 152.1141,
        "meta_ephemeris_type": 0,
        "meta_classification_type": "U",
        "meta_norad_cat_id": 34818,
        "meta_element_set_no": 999,
        "meta_rev_at_epoch": 87421,
        "meta_bstar": 0.00020479169,
        "meta_mean_motion_dot": 5.82e-06,
        "meta_mean_motion_ddot": 0,
        "tle_line1": "1 34818U 93036ABH 25350.31030257  .00000582  00000+0  20479-3 0  9990",
        "tle_line2": "2 34818  74.0362 290.3739 0024305   5.1622 152.1141 14.36971690874214"
      },
      "geometry": {
        "type": "Point",
        "coordinates": [
          76.04572912119976,
          62.070517841162356
        ]
      }
    },
    {
      "type": "Feature",
      "properties": {
        "norad_id": 34819,
        "name": "COSMOS 2251 DEB",
        "group": "cosmos-2251-debris",
        "lat": 68.20844158896935,
        "lon": -91.72674150893819,
        "alt_km": 679.213608089266,
        "timestamp": "2025-12-17T04:57:44.755958+00:00",
        "meta_object_name": "COSMOS 2251 DEB",
        "meta_object_id": "1993-036ABJ",
        "meta_epoch": "2025-12-16T02:47:00.153600",
        "meta_mean_motion": 14.64020669,
        "meta_eccentricity": 0.00156426,
        "meta_inclination": 74.0171,
        "meta_ra_of_asc_node": 136.1678,
        "meta_arg_of_pericenter": 230.4612,
        "meta_mean_anomaly": 248.0037,
        "meta_ephemeris_type": 0,
        "meta_classification_type": "U",
        "meta_norad_cat_id": 34819,
        "meta_element_set_no": 999,
        "meta_rev_at_epoch": 88278,
        "meta_bstar": 0.0011169462,
        "meta_mean_motion_dot": 5.841e-05,
        "meta_mean_motion_ddot": 0,
        "tle_line1": "1 34819U 93036ABJ 25350.11597400  .00005841  00000+0  11169-2 0  9995",
        "tle_line2": "2 34819  74.0171 136.1678 0015642 230.4612 248.0037 14.64020669882780"
      },
      "geometry": {
        "type": "Point",
        "coordinates": [
          -91.72674150893819,
          68.20844158896935
        ]
      }
    },
    {
      "type": "Feature",
      "properties": {
        "norad_id": 34823,
        "name": "COSMOS 2251 DEB",
        "group": "cosmos-2251-debris",
        "lat": 6.1367655528642455,
        "lon": 95.58648925764945,
        "alt_km": 819.3577037144796,
        "timestamp": "2025-12-17T04:57:44.755967+00:00",
        "meta_object_name": "COSMOS 2251 DEB",
        "meta_object_id": "1993-036ABN",
        "meta_epoch": "2025-12-16T17:22:50.423808",
        "meta_mean_motion": 14.5495788,
        "meta_eccentricity": 0.01544082,
        "meta_inclination": 74.0415,
        "meta_ra_of_asc_node": 94.7366,
        "meta_arg_of_pericenter": 178.5296,
        "meta_mean_anomaly": 181.6356,
        "meta_ephemeris_type": 0,
        "meta_classification_type": "U",
        "meta_norad_cat_id": 34823,
        "meta_element_set_no": 999,
        "meta_rev_at_epoch": 88439,
        "meta_bstar": 0.00052060412,
        "meta_mean_motion_dot": 2.597e-05,
        "meta_mean_motion_ddot": 0,
        "tle_line1": "1 34823U 93036ABN 25350.72419472  .00002597  00000+0  52060-3 0  9990",
        "tle_line2": "2 34823  74.0415  94.7366 0154408 178.5296 181.6356 14.54957880884391"
      },
      "geometry": {
        "type": "Point",
        "coordinates": [
          95.58648925764945,
          6.1367655528642455
        ]
      }
    },
    {
      "type": "Feature",
      "properties": {
        "norad_id": 34845,
        "name": "COSMOS 2251 DEB",
        "group": "cosmos-2251-debris",
        "lat": -8.570772752312966,
        "lon": -37.5139892593073,
        "alt_km": 748.6419130755958,
        "timestamp": "2025-12-17T04:57:44.755977+00:00",
        "meta_object_name": "COSMOS 2251 DEB",
        "meta_object_id": "1993-036ABP",
        "meta_epoch": "2025-12-16T16:27:57.312000",
        "meta_mean_motion": 14.45867207,
        "meta_eccentricity": 0.0022475,
        "meta_inclination": 74.024,
        "meta_ra_of_asc_node": 140.983,
        "meta_arg_of_pericenter": 301.2672,
        "meta_mean_anomaly": 58.6284,
        "meta_ephemeris_type": 0,
        "meta_classification_type": "U",
        "meta_norad_cat_id": 34845,
        "meta_element_set_no": 999,
        "meta_rev_at_epoch": 87523,
        "meta_bstar": 0.00027004577,
        "meta_mean_motion_dot": 9.35e-06,
        "meta_mean_motion_ddot": 0,
        "tle_line1": "1 34845U 93036ABP 25350.68608000  .00000935  00000+0  27005-3 0  9991",
        "tle_line2": "2 34845  74.0240 140.9830 0022475 301.2672  58.6284 14.45867207875231"
      },
      "geometry": {
        "type": "Point",
        "coordinates": [
          -37.5139892593073,
          -8.570772752312966
        ]
      }
    },
    {
      "type": "Feature",
      "properties": {
        "norad_id": 34846,
        "name": "COSMOS 2251 DEB",
        "group": "cosmos-2251-debris",
        "lat": 28.50227839346602,
        "lon": 64.47660757958741,
        "alt_km": 751.2956134833303,
        "timestamp": "2025-12-17T04:57:44.755986+00:00",
        "meta_object_name": "COSMOS 2251 DEB",
        "meta_object_id": "1993-036ABQ",
        "meta_epoch": "2025-12-16T18:18:57.193344",
        "meta_mean_motion": 14.47239601,
        "meta_eccentricity": 0.00261655,
        "meta_inclination": 74.0311,
        "meta_ra_of_asc_node": 254.2509,
        "meta_arg_of_pericenter": 320.1198,
        "meta_mean_anomaly": 39.8037,
        "meta_ephemeris_type": 0,
        "meta_classification_type": "U",
        "meta_norad_cat_id": 34846,
        "meta_element_set_no": 999,
        "meta_rev_at_epoch": 87462,
        "meta_bstar": 0.00057442019,
        "meta_mean_motion_dot": 2.082e-05,
        "meta_mean_motion_ddot": 0,
        "tle_line1": "1 34846U 93036ABQ 25350.76316196  .00002082  00000+0  57442-3 0  9996",
        "tle_line2": "2 34846  74.0311 254.2509 0026165 320.1198  39.8037 14.47239601874628"
      },
      "geometry": {
        "type": "Point",
        "coordinates": [
          64.47660757958741,
          28.50227839346602
        ]
      }
    }
  ]
}